{
 "generated_at": "2026-07-18T07:00:39Z",
 "sources": [
  {
   "name": "CelesTrak",
   "url": "https://celestrak.org/NORAD/elements/",
   "license": "frei verfügbar; Attribution. Ursprünglich USSPACECOM/Space-Track."
  },
  {
   "name": "GCAT (J. McDowell, planet4589.org)",
   "url": "https://planet4589.org/space/gcat/",
   "license": "CC-BY 4.0"
  }
 ],
 "satellites": [
  {
   "norad": 36605,
   "name": "TANDEM-X",
   "intl": "2010-030A",
   "group": "resource",
   "gcat": {
    "class": null,
    "category": "IMG-R",
    "owner": "DLR2/EASF",
    "state": "D"
   },
   "omm": {
    "OBJECT_NAME": "TANDEM-X",
    "OBJECT_ID": "2010-030A",
    "EPOCH": "2026-07-07T11:29:58.986816",
    "MEAN_MOTION": 15.19154052,
    "ECCENTRICITY": 0.0001887,
    "INCLINATION": 97.4457,
    "RA_OF_ASC_NODE": 195.8973,
    "ARG_OF_PERICENTER": 94.3019,
    "MEAN_ANOMALY": 265.8431,
    "EPHEMERIS_TYPE": 0,
    "CLASSIFICATION_TYPE": "U",
    "NORAD_CAT_ID": 36605,
    "ELEMENT_SET_NO": 999,
    "REV_AT_EPOCH": 88972,
    "BSTAR": 0.000021566,
    "MEAN_MOTION_DOT": 0.00000386,
    "MEAN_MOTION_DDOT": 0
   }
  },
  {
   "norad": 25397,
   "name": "TECHSAT 1B (GO-32)",
   "intl": "1998-043D",
   "group": "resource",
   "gcat": {
    "class": "A",
    "category": "COM",
    "owner": "TECN",
    "state": "IL"
   },
   "omm": {
    "OBJECT_NAME": "TECHSAT 1B (GO-32)",
    "OBJECT_ID": "1998-043D",
    "EPOCH": "2026-07-17T21:37:26.819040",
    "MEAN_MOTION": 14.24433664,
    "ECCENTRICITY": 0.00022597,
    "INCLINATION": 99.0087,
    "RA_OF_ASC_NODE": 192.4369,
    "ARG_OF_PERICENTER": 110.8324,
    "MEAN_ANOMALY": 249.3096,
    "EPHEMERIS_TYPE": 0,
    "CLASSIFICATION_TYPE": "U",
    "NORAD_CAT_ID": 25397,
    "ELEMENT_SET_NO": 999,
    "REV_AT_EPOCH": 45570,
    "BSTAR": 0.000022605347,
    "MEAN_MOTION_DOT": 6e-8,
    "MEAN_MOTION_DDOT": 0
   }
  },
  {
   "norad": 25994,
   "name": "TERRA",
   "intl": "1999-068A",
   "group": "resource",
   "gcat": {
    "class": "C",
    "category": "IMG",
    "owner": "GSFC",
    "state": "US"
   },
   "omm": {
    "OBJECT_NAME": "TERRA",
    "OBJECT_ID": "1999-068A",
    "EPOCH": "2026-07-17T21:51:49.919616",
    "MEAN_MOTION": 14.61124864,
    "ECCENTRICITY": 0.00035123,
    "INCLINATION": 97.9439,
    "RA_OF_ASC_NODE": 247.2365,
    "ARG_OF_PERICENTER": 117.4238,
    "MEAN_ANOMALY": 346.6126,
    "EPHEMERIS_TYPE": 0,
    "CLASSIFICATION_TYPE": "U",
    "NORAD_CAT_ID": 25994,
    "ELEMENT_SET_NO": 999,
    "REV_AT_EPOCH": 41409,
    "BSTAR": 0.000041179927,
    "MEAN_MOTION_DOT": 0.00000158,
    "MEAN_MOTION_DDOT": 0
   }
  },
  {
   "norad": 31698,
   "name": "TERRASAR-X",
   "intl": "2007-026A",
   "group": "resource",
   "gcat": {
    "class": null,
    "category": "IMG-R",
    "owner": "DLR2/EASF",
    "state": "D"
   },
   "omm": {
    "OBJECT_NAME": "TERRASAR-X",
    "OBJECT_ID": "2007-026A",
    "EPOCH": "2026-07-07T11:29:59.023968",
    "MEAN_MOTION": 15.19153986,
    "ECCENTRICITY": 0.0001878,
    "INCLINATION": 97.4461,
    "RA_OF_ASC_NODE": 195.8972,
    "ARG_OF_PERICENTER": 86.954,
    "MEAN_ANOMALY": 273.1909,
    "EPHEMERIS_TYPE": 0,
    "CLASSIFICATION_TYPE": "U",
    "NORAD_CAT_ID": 31698,
    "ELEMENT_SET_NO": 999,
    "REV_AT_EPOCH": 5630,
    "BSTAR": 0.000014624,
    "MEAN_MOTION_DOT": 0.0000024,
    "MEAN_MOTION_DDOT": 0
   }
  },
  {
   "norad": 33396,
   "name": "THEOS",
   "intl": "2008-049A",
   "group": "resource",
   "gcat": {
    "class": "C",
    "category": "IMG",
    "owner": "GISTDA",
    "state": "T"
   },
   "omm": {
    "OBJECT_NAME": "THEOS",
    "OBJECT_ID": "2008-049A",
    "EPOCH": "2026-07-17T23:15:53.675136",
    "MEAN_MOTION": 14.20136539,
    "ECCENTRICITY": 0.00011128,
    "INCLINATION": 98.5552,
    "RA_OF_ASC_NODE": 255.2509,
    "ARG_OF_PERICENTER": 89.4356,
    "MEAN_ANOMALY": 270.6949,
    "EPHEMERIS_TYPE": 0,
    "CLASSIFICATION_TYPE": "U",
    "NORAD_CAT_ID": 33396,
    "ELEMENT_SET_NO": 999,
    "REV_AT_EPOCH": 92233,
    "BSTAR": -0.000073727204,
    "MEAN_MOTION_DOT": -0.000002,
    "MEAN_MOTION_DDOT": 0
   }
  },
  {
   "norad": 55973,
   "name": "TIANMU-1 03",
   "intl": "2023-039A",
   "group": "weather",
   "gcat": {
    "class": "B",
    "category": "MET",
    "owner": "TIANMU",
    "state": "CN"
   },
   "omm": {
    "OBJECT_NAME": "TIANMU-1 03",
    "OBJECT_ID": "2023-039A",
    "EPOCH": "2026-07-17T22:54:40.881312",
    "MEAN_MOTION": 15.48092593,
    "ECCENTRICITY": 0.00023461,
    "INCLINATION": 97.5246,
    "RA_OF_ASC_NODE": 14.1496,
    "ARG_OF_PERICENTER": 17.8851,
    "MEAN_ANOMALY": 342.2481,
    "EPHEMERIS_TYPE": 0,
    "CLASSIFICATION_TYPE": "U",
    "NORAD_CAT_ID": 55973,
    "ELEMENT_SET_NO": 999,
    "REV_AT_EPOCH": 18559,
    "BSTAR": 0.00017322504,
    "MEAN_MOTION_DOT": 0.00008985,
    "MEAN_MOTION_DDOT": 0
   }
  },
  {
   "norad": 55974,
   "name": "TIANMU-1 04",
   "intl": "2023-039B",
   "group": "weather",
   "gcat": {
    "class": "B",
    "category": "MET",
    "owner": "TIANMU",
    "state": "CN"
   },
   "omm": {
    "OBJECT_NAME": "TIANMU-1 04",
    "OBJECT_ID": "2023-039B",
    "EPOCH": "2026-07-17T22:22:00.323616",
    "MEAN_MOTION": 15.48721116,
    "ECCENTRICITY": 0.00027448,
    "INCLINATION": 97.5187,
    "RA_OF_ASC_NODE": 13.2821,
    "ARG_OF_PERICENTER": 2.14,
    "MEAN_ANOMALY": 357.9861,
    "EPHEMERIS_TYPE": 0,
    "CLASSIFICATION_TYPE": "U",
    "NORAD_CAT_ID": 55974,
    "ELEMENT_SET_NO": 999,
    "REV_AT_EPOCH": 18560,
    "BSTAR": 0.00017927846,
    "MEAN_MOTION_DOT": 0.0000951,
    "MEAN_MOTION_DDOT": 0
   }
  },
  {
   "norad": 55975,
   "name": "TIANMU-1 05",
   "intl": "2023-039C",
   "group": "weather",
   "gcat": {
    "class": "B",
    "category": "MET",
    "owner": "TIANMU",
    "state": "CN"
   },
   "omm": {
    "OBJECT_NAME": "TIANMU-1 05",
    "OBJECT_ID": "2023-039C",
    "EPOCH": "2026-07-17T22:29:09.365280",
    "MEAN_MOTION": 15.48017508,
    "ECCENTRICITY": 0.00027202,
    "INCLINATION": 97.5231,
    "RA_OF_ASC_NODE": 13.7345,
    "ARG_OF_PERICENTER": 38.8159,
    "MEAN_ANOMALY": 321.3286,
    "EPHEMERIS_TYPE": 0,
    "CLASSIFICATION_TYPE": "U",
    "NORAD_CAT_ID": 55975,
    "ELEMENT_SET_NO": 999,
    "REV_AT_EPOCH": 18557,
    "BSTAR": 0.00017198349,
    "MEAN_MOTION_DOT": 0.00008897,
    "MEAN_MOTION_DDOT": 0
   }
  },
  {
   "norad": 55976,
   "name": "TIANMU-1 06",
   "intl": "2023-039D",
   "group": "weather",
   "gcat": {
    "class": "B",
    "category": "MET",
    "owner": "TIANMU",
    "state": "CN"
   },
   "omm": {
    "OBJECT_NAME": "TIANMU-1 06",
    "OBJECT_ID": "2023-039D",
    "EPOCH": "2026-07-17T22:29:44.003040",
    "MEAN_MOTION": 15.48617281,
    "ECCENTRICITY": 0.00027859,
    "INCLINATION": 97.5239,
    "RA_OF_ASC_NODE": 14.4019,
    "ARG_OF_PERICENTER": 29.1218,
    "MEAN_ANOMALY": 331.0187,
    "EPHEMERIS_TYPE": 0,
    "CLASSIFICATION_TYPE": "U",
    "NORAD_CAT_ID": 55976,
    "ELEMENT_SET_NO": 999,
    "REV_AT_EPOCH": 18560,
    "BSTAR": 0.0001751267,
    "MEAN_MOTION_DOT": 0.00009254,
    "MEAN_MOTION_DDOT": 0
   }
  },
  {
   "norad": 57399,
   "name": "TIANMU-1 07",
   "intl": "2023-101A",
   "group": "weather",
   "gcat": {
    "class": "B",
    "category": "MET",
    "owner": "TIANMU",
    "state": "CN"
   },
   "omm": {
    "OBJECT_NAME": "TIANMU-1 07",
    "OBJECT_ID": "2023-101A",
    "EPOCH": "2026-07-17T23:17:00.121056",
    "MEAN_MOTION": 15.30134041,
    "ECCENTRICITY": 0.00035645,
    "INCLINATION": 97.2573,
    "RA_OF_ASC_NODE": 248.9353,
    "ARG_OF_PERICENTER": 58.7393,
    "MEAN_ANOMALY": 301.4197,
    "EPHEMERIS_TYPE": 0,
    "CLASSIFICATION_TYPE": "U",
    "NORAD_CAT_ID": 57399,
    "ELEMENT_SET_NO": 999,
    "REV_AT_EPOCH": 16635,
    "BSTAR": 0.00011369705,
    "MEAN_MOTION_DOT": 0.00003241,
    "MEAN_MOTION_DDOT": 0
   }
  },
  {
   "norad": 57400,
   "name": "TIANMU-1 08",
   "intl": "2023-101B",
   "group": "weather",
   "gcat": {
    "class": "B",
    "category": "MET",
    "owner": "TIANMU",
    "state": "CN"
   },
   "omm": {
    "OBJECT_NAME": "TIANMU-1 08",
    "OBJECT_ID": "2023-101B",
    "EPOCH": "2026-07-17T22:28:50.928384",
    "MEAN_MOTION": 15.30137309,
    "ECCENTRICITY": 0.00043513,
    "INCLINATION": 97.2562,
    "RA_OF_ASC_NODE": 248.6687,
    "ARG_OF_PERICENTER": 39.1558,
    "MEAN_ANOMALY": 320.9997,
    "EPHEMERIS_TYPE": 0,
    "CLASSIFICATION_TYPE": "U",
    "NORAD_CAT_ID": 57400,
    "ELEMENT_SET_NO": 999,
    "REV_AT_EPOCH": 16634,
    "BSTAR": 0.00011275517,
    "MEAN_MOTION_DOT": 0.00003214,
    "MEAN_MOTION_DDOT": 0
   }
  },
  {
   "norad": 57401,
   "name": "TIANMU-1 09",
   "intl": "2023-101C",
   "group": "weather",
   "gcat": {
    "class": "B",
    "category": "MET",
    "owner": "TIANMU",
    "state": "CN"
   },
   "omm": {
    "OBJECT_NAME": "TIANMU-1 09",
    "OBJECT_ID": "2023-101C",
    "EPOCH": "2026-07-17T23:38:05.270208",
    "MEAN_MOTION": 15.30179645,
    "ECCENTRICITY": 0.00041692,
    "INCLINATION": 97.252,
    "RA_OF_ASC_NODE": 248.1159,
    "ARG_OF_PERICENTER": 58.3863,
    "MEAN_ANOMALY": 301.7784,
    "EPHEMERIS_TYPE": 0,
    "CLASSIFICATION_TYPE": "U",
    "NORAD_CAT_ID": 57401,
    "ELEMENT_SET_NO": 999,
    "REV_AT_EPOCH": 16635,
    "BSTAR": 0.00011988479,
    "MEAN_MOTION_DOT": 0.00003427,
    "MEAN_MOTION_DDOT": 0
   }
  },
  {
   "norad": 57402,
   "name": "TIANMU-1 10",
   "intl": "2023-101D",
   "group": "weather",
   "gcat": {
    "class": "B",
    "category": "MET",
    "owner": "TIANMU",
    "state": "CN"
   },
   "omm": {
    "OBJECT_NAME": "TIANMU-1 10",
    "OBJECT_ID": "2023-101D",
    "EPOCH": "2026-07-17T22:52:17.211072",
    "MEAN_MOTION": 15.30152986,
    "ECCENTRICITY": 0.00054176,
    "INCLINATION": 97.2599,
    "RA_OF_ASC_NODE": 249.1668,
    "ARG_OF_PERICENTER": 46.6831,
    "MEAN_ANOMALY": 313.4861,
    "EPHEMERIS_TYPE": 0,
    "CLASSIFICATION_TYPE": "U",
    "NORAD_CAT_ID": 57402,
    "ELEMENT_SET_NO": 999,
    "REV_AT_EPOCH": 16634,
    "BSTAR": 0.00011956314,
    "MEAN_MOTION_DOT": 0.00003415,
    "MEAN_MOTION_DDOT": 0
   }
  }
 ]
}
